[{"OBJECT_NAME":"OBJECT M","OBJECT_ID":"2024-205M","EPOCH":"2026-03-09T22:23:47.520096","MEAN_MOTION":15.27663844,"ECCENTRICITY":0.00036602,"INCLINATION":97.3915,"RA_OF_ASC_NODE":144.193,"ARG_OF_PERICENTER":310.2554,"MEAN_ANOMALY":49.8364,"EPHEMERIS_TYPE":0,"CLASSIFICATION_TYPE":"U","NORAD_CAT_ID":61905,"ELEMENT_SET_NO":999,"REV_AT_EPOCH":7334,"BSTAR":0.00036391974,"MEAN_MOTION_DOT":9.771e-5,"MEAN_MOTION_DDOT":0},{"OBJECT_NAME":"STARLINK-36072","OBJECT_ID":"2025-281J","EPOCH":"2026-03-09T04:24:15.195744","MEAN_MOTION":15.27591238,"ECCENTRICITY":7.699e-5,"INCLINATION":42.9959,"RA_OF_ASC_NODE":346.7232,"ARG_OF_PERICENTER":265.3751,"MEAN_ANOMALY":94.7013,"EPHEMERIS_TYPE":0,"CLASSIFICATION_TYPE":"U","NORAD_CAT_ID":66856,"ELEMENT_SET_NO":999,"REV_AT_EPOCH":1610,"BSTAR":0.0006549002,"MEAN_MOTION_DOT":0.00017809,"MEAN_MOTION_DDOT":0}]
